NEUTRON-1               
1 46923U 98067RT  21003.57932783  .00005886  00000-0  10639-3 0  9993
2 46923  51.6433  76.2906 0001579 187.1132 172.9835 15.51226776  9278
1998-067RU              
1 46924U 98067RU  21003.62362038  .00012770  00000-0  21256-3 0  9997
2 46924  51.6426  75.8367 0001125 259.5615 100.5249 15.52401900  9253
DESCENT                 
1 46927U 98067RX  21003.90362971  .00006215  00000-0  11203-3 0  9995
2 46927  51.6432  74.7059 0001569 220.9628 139.1244 15.51194121  9231
